
[{"ORDINAL":"1","COMMENT":"GENERATED VIA SPACETRACK.ORG API","ORIGINATOR":"JSPOC","NORAD_CAT_ID":"39619","OBJECT_NAME":"ARIANE 5 DEB (SYLDA)","OBJECT_TYPE":"DEBRIS","CLASSIFICATION_TYPE":"U","INTLDES":"14011D","EPOCH":"2015-04-11 03:53:54","EPOCH_MICROSECONDS":"606047","MEAN_MOTION":"2.85395113","ECCENTRICITY":"0.6844084","INCLINATION":"2.5748","RA_OF_ASC_NODE":"158.1263","ARG_OF_PERICENTER":"173.68","MEAN_ANOMALY":"204.6082","EPHEMERIS_TYPE":"0","ELEMENT_SET_NO":"999","REV_AT_EPOCH":"944","BSTAR":"0.0099831","MEAN_MOTION_DOT":"0.00053228","MEAN_MOTION_DDOT":"0","FILE":"1854503","TLE_LINE0":"0 ARIANE 5 DEB (SYLDA)","TLE_LINE1":"1 39619U 14011D   15101.16243757  .00053228  00000-0  99831-2 0  9990","TLE_LINE2":"2 39619 002.5748 158.1263 6844084 173.6800 204.6082 02.85395113  9447","OBJECT_ID":"2014-011D","OBJECT_NUMBER":"39619"},{"ORDINAL":"1","COMMENT":"GENERATED VIA SPACETRACK.ORG API","ORIGINATOR":"JSPOC","NORAD_CAT_ID":"40264","OBJECT_NAME":"CZ-2C DEB","OBJECT_TYPE":"DEBRIS","CLASSIFICATION_TYPE":"U","INTLDES":"14059D","EPOCH":"2015-04-11 04:24:37","EPOCH_MICROSECONDS":"855007","MEAN_MOTION":"14.47575668","ECCENTRICITY":"0.0113207","INCLINATION":"97.8734","RA_OF_ASC_NODE":"180.9761","ARG_OF_PERICENTER":"339.21","MEAN_ANOMALY":"20.4507","EPHEMERIS_TYPE":"0","ELEMENT_SET_NO":"999","REV_AT_EPOCH":"2819","BSTAR":"0.00073542","MEAN_MOTION_DOT":"2.89e-05","MEAN_MOTION_DDOT":"0","FILE":"1854396","TLE_LINE0":"0 CZ-2C DEB","TLE_LINE1":"1 40264U 14059D   15101.18377147  .00002890  00000-0  73542-3 0  9994","TLE_LINE2":"2 40264 097.8734 180.9761 0113207 339.2100 020.4507 14.47575668 28191","OBJECT_ID":"2014-059D","OBJECT_NUMBER":"40264"},{"ORDINAL":"1","COMMENT":"GENERATED VIA SPACETRACK.ORG API","ORIGINATOR":"JSPOC","NORAD_CAT_ID":"40304","OBJECT_NAME":"SL-24 PLAT","OBJECT_TYPE":"DEBRIS","CLASSIFICATION_TYPE":"U","INTLDES":"14070G","EPOCH":"2015-04-11 05:24:11","EPOCH_MICROSECONDS":"810015","MEAN_MOTION":"15.31613528","ECCENTRICITY":"0.0017692","INCLINATION":"97.4625","RA_OF_ASC_NODE":"186.1098","ARG_OF_PERICENTER":"169.701","MEAN_ANOMALY":"189.4033","EPHEMERIS_TYPE":"0","ELEMENT_SET_NO":"999","REV_AT_EPOCH":"2380","BSTAR":"0.00071726","MEAN_MOTION_DOT":"0.0002196","MEAN_MOTION_DDOT":"0","FILE":"1854348","TLE_LINE0":"0 SL-24 PLAT","TLE_LINE1":"1 40304U 14070G   15101.22513669  .00021960  00000-0  71726-3 0  9999","TLE_LINE2":"2 40304 097.4625 186.1098 0017692 169.7010 189.4033 15.31613528 23804","OBJECT_ID":"2014-070G","OBJECT_NUMBER":"40304"},{"ORDINAL":"1","COMMENT":"GENERATED VIA SPACETRACK.ORG API","ORIGINATOR":"JSPOC","NORAD_CAT_ID":"40309","OBJECT_NAME":"CZ-2C DEB","OBJECT_TYPE":"DEBRIS","CLASSIFICATION_TYPE":"U","INTLDES":"14071E","EPOCH":"2015-04-11 08:59:25","EPOCH_MICROSECONDS":"405439","MEAN_MOTION":"15.15475525","ECCENTRICITY":"0.010209","INCLINATION":"97.1402","RA_OF_ASC_NODE":"40.6112","ARG_OF_PERICENTER":"57.0068","MEAN_ANOMALY":"304.1258","EPHEMERIS_TYPE":"0","ELEMENT_SET_NO":"999","REV_AT_EPOCH":"2221","BSTAR":"0.003192","MEAN_MOTION_DOT":"0.00069415","MEAN_MOTION_DDOT":"0","FILE":"1854574","TLE_LINE0":"0 CZ-2C DEB","TLE_LINE1":"1 40309U 14071E   15101.37459960  .00069415  00000-0  31920-2 0  9992","TLE_LINE2":"2 40309 097.1402 040.6112 0102090 057.0068 304.1258 15.15475525 22213","OBJECT_ID":"2014-071E","OBJECT_NUMBER":"40309"},{"ORDINAL":"1","COMMENT":"GENERATED VIA SPACETRACK.ORG API","ORIGINATOR":"JSPOC","NORAD_CAT_ID":"39730","OBJECT_NAME":"BREEZE-M DEB (TANK)","OBJECT_TYPE":"DEBRIS","CLASSIFICATION_TYPE":"U","INTLDES":"14023D","EPOCH":"2015-04-11 09:10:29","EPOCH_MICROSECONDS":"320319","MEAN_MOTION":"2.38315258","ECCENTRICITY":"0.7222377","INCLINATION":"46.9048","RA_OF_ASC_NODE":"190.8367","ARG_OF_PERICENTER":"94.9663","MEAN_ANOMALY":"343.1298","EPHEMERIS_TYPE":"0","ELEMENT_SET_NO":"999","REV_AT_EPOCH":"800","BSTAR":"0.0017322","MEAN_MOTION_DOT":"0.0002357","MEAN_MOTION_DDOT":"-2.012e-07","FILE":"1854504","TLE_LINE0":"0 BREEZE-M DEB (TANK)","TLE_LINE1":"1 39730U 14023D   15101.38228380  .00023570 -20120-6  17322-2 0  9990","TLE_LINE2":"2 39730 046.9048 190.8367 7222377 094.9663 343.1298 02.38315258  8001","OBJECT_ID":"2014-023D","OBJECT_NUMBER":"39730"},{"ORDINAL":"1","COMMENT":"GENERATED VIA SPACETRACK.ORG API","ORIGINATOR":"JSPOC","NORAD_CAT_ID":"40289","OBJECT_NAME":"CZ-2C DEB","OBJECT_TYPE":"DEBRIS","CLASSIFICATION_TYPE":"U","INTLDES":"14066D","EPOCH":"2015-04-11 12:49:13","EPOCH_MICROSECONDS":"624607","MEAN_MOTION":"14.48215427","ECCENTRICITY":"0.0112727","INCLINATION":"98.4401","RA_OF_ASC_NODE":"220.2855","ARG_OF_PERICENTER":"79.2482","MEAN_ANOMALY":"282.1365","EPHEMERIS_TYPE":"0","ELEMENT_SET_NO":"999","REV_AT_EPOCH":"2404","BSTAR":"0.0011475","MEAN_MOTION_DOT":"4.592e-05","MEAN_MOTION_DDOT":"0","FILE":"1854566","TLE_LINE0":"0 CZ-2C DEB","TLE_LINE1":"1 40289U 14066D   15101.53418547  .00004592  00000-0  11475-2 0  9995","TLE_LINE2":"2 40289 098.4401 220.2855 0112727 079.2482 282.1365 14.48215427 24042","OBJECT_ID":"2014-066D","OBJECT_NUMBER":"40289"},{"ORDINAL":"1","COMMENT":"GENERATED VIA SPACETRACK.ORG API","ORIGINATOR":"JSPOC","NORAD_CAT_ID":"40291","OBJECT_NAME":"CZ-2C DEB","OBJECT_TYPE":"DEBRIS","CLASSIFICATION_TYPE":"U","INTLDES":"14066F","EPOCH":"2015-04-11 13:14:55","EPOCH_MICROSECONDS":"561343","MEAN_MOTION":"14.22403359","ECCENTRICITY":"0.0179073","INCLINATION":"98.4464","RA_OF_ASC_NODE":"213.7813","ARG_OF_PERICENTER":"45.8446","MEAN_ANOMALY":"315.7295","EPHEMERIS_TYPE":"0","ELEMENT_SET_NO":"999","REV_AT_EPOCH":"2362","BSTAR":"0.0007225","MEAN_MOTION_DOT":"1.853e-05","MEAN_MOTION_DDOT":"0","FILE":"1854561","TLE_LINE0":"0 CZ-2C DEB","TLE_LINE1":"1 40291U 14066F   15101.55203196  .00001853  00000-0  72250-3 0  9998","TLE_LINE2":"2 40291 098.4464 213.7813 0179073 045.8446 315.7295 14.22403359 23624","OBJECT_ID":"2014-066F","OBJECT_NUMBER":"40291"}]